NORAD_CAT_ID,OBJECT_NAME,OBJECT_TYPE,EPOCH,MEAN_MOTION,ECCENTRICITY,INCLINATION,RA_OF_ASC_NODE,ARG_OF_PERICENTER,MEAN_ANOMALY,BSTAR,MEAN_MOTION_DOT,MEAN_MOTION_DDOT,TLE_LINE0,TLE_LINE1,TLE_LINE2,SEMIMAJOR_AXIS,PERIOD,APOGEE,PERIGEE,DECAYED
49738.0,STARLINK-3143,PAYLOAD,2023-08-29 13:22:18,15.08844056,0.0001175,53.2182,333.2246,81.9881,278.1245,2.8474e-05,1.65e-06,0.0,0 STARLINK-3143,1 49738U 21115Q   23241.55716380  .00000165  00000-0  28474-4 0  9999,2 49738  53.2182 333.2246 0001175  81.9881 278.1245 15.08844056 96179,6917.868,95.437,540.546,538.92,0.0
49738.0,STARLINK-3143,PAYLOAD,2023-08-30 08:26:57,15.0882321,0.0001239,53.2172,329.6562,90.703,269.4105,0.00011446,1.533e-05,0.0,0 STARLINK-3143,1 49738U 21115Q   23242.35205555  .00001533  00000-0  11446-3 0  9995,2 49738  53.2172 329.6562 0001239  90.7030 269.4105 15.08823210 97407,6917.932,95.439,540.654,538.94,0.0
49738.0,STARLINK-3143,PAYLOAD,2023-08-30 13:13:06,15.08834441,9.52e-05,53.2171,328.764,77.8336,282.2763,7.8966e-05,9.69e-06,0.0,0 STARLINK-3143,1 49738U 21115Q   23242.55077059  .00000969  00000-0  78966-4 0  9996,2 49738  53.2171 328.7640 0000952  77.8336 282.2763 15.08834441 97433,6917.897,95.438,540.421,539.104,0.0
49738.0,STARLINK-3143,PAYLOAD,2023-08-31 05:06:57,15.08837585,0.0001142,53.2173,325.7894,92.1573,267.955,6.489e-05,7.45e-06,0.0,0 STARLINK-3143,1 49738U 21115Q   23243.21317000  .00000745  00000-0  64890-4 0  9996,2 49738  53.2173 325.7894 0001142  92.1573 267.9550 15.08837585 96422,6917.888,95.438,540.543,538.963,0.0
49738.0,STARLINK-3143,PAYLOAD,2023-09-01 00:11:35,15.08835,0.0001285,53.2173,322.2209,87.9315,272.1824,0.00016324,2.311e-05,0.0,0 STARLINK-3143,1 49738U 21115Q   23244.00805063  .00002311  00000-0  16324-3 0  9994,2 49738  53.2173 322.2209 0001285  87.9315 272.1824 15.08835000 97656,6917.896,95.438,540.65,538.872,0.0
49738.0,STARLINK-3143,PAYLOAD,2023-09-01 11:19:17,15.0883287,0.0001214,53.2172,320.1394,91.2129,268.9002,0.00017776,2.542e-05,0.0,0 STARLINK-3143,1 49738U 21115Q   23244.47173263  .00002542  00000-0  17776-3 0  9993,2 49738  53.2172 320.1394 0001214  91.2129 268.9002 15.08832870 96618,6917.902,95.438,540.607,538.927,0.0
49738.0,STARLINK-3143,PAYLOAD,2023-09-01 14:30:03,15.08844081,0.0001209,53.217,319.5443,83.4147,276.6983,8.9634e-05,1.139e-05,0.0,0 STARLINK-3143,1 49738U 21115Q   23244.60420698  .00001139  00000-0  89634-4 0  9999,2 49738  53.2170 319.5443 0001209  83.4147 276.6983 15.08844081 96633,6917.868,95.437,540.569,538.897,0.0
49738.0,STARLINK-3143,PAYLOAD,2023-09-01 22:26:59,15.08823471,0.0001271,53.2161,318.0568,89.2159,270.8979,0.00029431,4.397e-05,0.0,0 STARLINK-3143,1 49738U 21115Q   23244.93541607  .00004397  00000-0  29431-3 0  9996,2 49738  53.2161 318.0568 0001271  89.2159 270.8979 15.08823471 97790,6917.931,95.439,540.675,538.917,0.0
49738.0,STARLINK-3143,PAYLOAD,2023-09-02 11:10:04,15.08845065,0.0001447,53.2164,315.6769,89.0652,271.0506,6.3648e-05,7.25e-06,0.0,0 STARLINK-3143,1 49738U 21115Q   23245.46532696  .00000725  00000-0  63648-4 0  9993,2 49738  53.2164 315.6769 0001447  89.0652 271.0506 15.08845065 97871,6917.865,95.437,540.731,538.729,0.0
49738.0,STARLINK-3143,PAYLOAD,2023-09-03 11:00:50,15.08849792,0.000127,53.2162,311.2171,91.5896,268.5241,0.00011403,1.528e-05,0.0,0 STARLINK-3143,1 49738U 21115Q   23246.45891869  .00001528  00000-0  11403-3 0  9996,2 49738  53.2162 311.2171 0001270  91.5896 268.5241 15.08849792 96912,6917.85,95.437,540.594,538.837,0.0
49738.0,STARLINK-3143,PAYLOAD,2023-09-03 23:43:56,15.08837117,0.0001334,53.2162,308.8388,85.3127,274.8017,2.439e-05,1e-06,0.0,0 STARLINK-3143,1 49738U 21115Q   23246.98884853  .00000100  00000-0  24390-4 0  9994,2 49738  53.2162 308.8388 0001334  85.3127 274.8017 15.08837117 98105,6917.889,95.438,540.677,538.831,0.0
49738.0,STARLINK-3143,PAYLOAD,2023-09-04 04:30:07,15.08819687,9.85e-05,53.2166,307.9455,46.6819,313.4255,-0.00012297,-2.243e-05,0.0,0 STARLINK-3143,1 49738U 21115Q   23247.18758526 -.00002243  00000-0 -12297-3 0  9998,2 49738  53.2166 307.9455 0000985  46.6819 313.4255 15.08819687 98132,6917.942,95.439,540.489,539.126,0.0
49738.0,STARLINK-3143,PAYLOAD,2023-09-05 04:20:53,15.08815774,0.0001391,53.2182,303.4909,96.7446,263.3704,0.00015878,2.238e-05,0.0,0 STARLINK-3143,1 49738U 21115Q   23248.18117787  .00002238  00000-0  15878-3 0  9997,2 49738  53.2182 303.4909 0001391  96.7446 263.3704 15.08815774 98280,6917.954,95.439,540.782,538.857,0.0
49738.0,STARLINK-3143,PAYLOAD,2023-09-05 23:25:31,15.08828399,0.0001262,53.2172,299.9198,96.4703,263.6433,0.00023636,3.475e-05,0.0,0 STARLINK-3143,1 49738U 21115Q   23248.97605770  .00003475  00000-0  23636-3 0  9993,2 49738  53.2172 299.9198 0001262  96.4703 263.6433 15.08828399 98401,6917.916,95.438,540.654,538.908,0.0
49738.0,STARLINK-3143,PAYLOAD,2023-09-06 20:05:32,15.08824344,0.0001345,53.2169,296.0539,89.2716,270.843,0.00042612,6.497e-05,0.0,0 STARLINK-3143,1 49738U 21115Q   23249.83718432  .00006497  00000-0  42612-3 0  9991,2 49738  53.2169 296.0539 0001345  89.2716 270.8430 15.08824344 97424,6917.928,95.439,540.724,538.863,0.0
49738.0,STARLINK-3143,PAYLOAD,2023-09-07 02:27:04,15.08840645,0.0001271,53.2169,294.865,94.0145,266.0993,0.00011321,1.514e-05,0.0,0 STARLINK-3143,1 49738U 21115Q   23250.10213926  .00001514  00000-0  11321-3 0  9999,2 49738  53.2169 294.8650 0001271  94.0145 266.0993 15.08840645 98572,6917.878,95.438,540.623,538.864,0.0
49738.0,STARLINK-3143,PAYLOAD,2023-09-07 08:48:37,15.0883577,0.0001316,53.2167,293.6745,94.7416,265.3726,6.5032e-05,7.47e-06,0.0,0 STARLINK-3143,1 49738U 21115Q   23250.36710424  .00000747  00000-0  65032-4 0  9998,2 49738  53.2167 293.6745 0001316  94.7416 265.3726 15.08835770 98614,6917.893,95.438,540.669,538.848,0.0
49738.0,STARLINK-3143,PAYLOAD,2023-09-07 13:34:47,15.08837737,0.0001335,53.2167,292.782,96.6966,263.4178,9.2862e-05,1.19e-05,0.0,0 STARLINK-3143,1 49738U 21115Q   23250.56582214  .00001190  00000-0  92862-4 0  9998,2 49738  53.2167 292.7820 0001335  96.6966 263.4178 15.08837737 97535,6917.887,95.438,540.676,538.829,0.0
49738.0,STARLINK-3143,PAYLOAD,2023-09-08 02:17:51,15.08844057,0.0001425,53.2164,290.4028,94.6666,265.4489,3.5208e-05,2.72e-06,0.0,0 STARLINK-3143,1 49738U 21115Q   23251.09573965  .00000272  00000-0  35208-4 0  9991,2 49738  53.2164 290.4028 0001425  94.6666 265.4489 15.08844057 98724,6917.868,95.437,540.719,538.747,0.0
49738.0,STARLINK-3143,PAYLOAD,2023-09-08 10:14:47,15.08846029,0.0001361,53.2164,288.9158,93.1608,266.954,3.5103e-05,2.71e-06,0.0,0 STARLINK-3143,1 49738U 21115Q   23251.42693735  .00000271  00000-0  35103-4 0  9999,2 49738  53.2164 288.9158 0001361  93.1608 266.9540 15.08846029 97666,6917.862,95.437,540.668,538.785,0.0
49738.0,STARLINK-3143,PAYLOAD,2023-09-08 19:47:06,15.08837944,0.0001438,53.2172,287.1313,86.1798,273.9359,8.6474e-05,1.088e-05,0.0,0 STARLINK-3143,1 49738U 21115Q   23251.82438086  .00001088  00000-0  86474-4 0  9993,2 49738  53.2172 287.1313 0001438  86.1798 273.9359 15.08837944 97725,6917.887,95.438,540.746,538.757,0.0
49738.0,STARLINK-3143,PAYLOAD,2023-09-09 02:08:39,15.08835566,0.0001462,53.2172,285.942,86.6165,273.4995,5.7909e-05,6.34e-06,0.0,0 STARLINK-3143,1 49738U 21115Q   23252.08934401  .00000634  00000-0  57909-4 0  9991,2 49738  53.2172 285.9420 0001462  86.6165 273.4995 15.08835566 98876,6917.894,95.438,540.77,538.748,0.0
49738.0,STARLINK-3143,PAYLOAD,2023-09-09 08:30:11,15.08834618,0.0001383,53.2165,284.752,89.7331,270.382,5.0605e-05,5.17e-06,0.0,0 STARLINK-3143,1 49738U 21115Q   23252.35430521  .00000517  00000-0  50605-4 0  9991,2 49738  53.2165 284.7520 0001383  89.7331 270.3820 15.08834618 97809,6917.897,95.438,540.719,538.805,0.0
49738.0,STARLINK-3143,PAYLOAD,2023-09-10 01:59:25,15.088437,0.0001436,53.2165,281.4809,89.2875,270.8281,8.311e-05,1.035e-05,0.0,0 STARLINK-3143,1 49738U 21115Q   23253.08293897  .00001035  00000-0  83110-4 0  9998,2 49738  53.2165 281.4809 0001436  89.2875 270.8281 15.08843700 99024,6917.869,95.437,540.727,538.741,0.0
49738.0,STARLINK-3143,PAYLOAD,2023-09-10 08:20:58,15.08848629,0.000145,53.2163,280.2915,88.8289,271.2869,9.3218e-05,1.196e-05,0.0,0 STARLINK-3143,1 49738U 21115Q   23253.34789485  .00001196  00000-0  93218-4 0  9998,2 49738  53.2163 280.2915 0001450  88.8289 271.2869 15.08848629 97959,6917.854,95.437,540.722,538.716,0.0
49738.0,STARLINK-3143,PAYLOAD,2023-09-11 01:50:13,15.08836394,0.0001488,53.2154,277.0204,88.5333,271.5829,6.8978e-05,8.1e-06,0.0,0 STARLINK-3143,1 49738U 21115Q   23254.07654301  .00000810  00000-0  68978-4 0  9994,2 49738  53.2154 277.0204 0001488  88.5333 271.5829 15.08836394 99173,6917.891,95.438,540.786,538.727,0.0
49738.0,STARLINK-3143,PAYLOAD,2023-09-11 08:11:46,15.08832333,0.0001505,53.2156,275.8313,87.2612,272.8552,3.0686e-05,2e-06,0.0,0 STARLINK-3143,1 49738U 21115Q   23254.34150796  .00000200  00000-0  30686-4 0  9991,2 49738  53.2156 275.8313 0001505  87.2612 272.8552 15.08832333 98106,6917.904,95.438,540.81,538.728,0.0
49738.0,STARLINK-3143,PAYLOAD,2023-09-12 01:41:00,15.08846058,0.0001633,53.2169,272.5607,85.1214,274.9964,3.8349e-05,3.22e-06,0.0,0 STARLINK-3143,1 49738U 21115Q   23255.07013925  .00000322  00000-0  38349-4 0  9993,2 49738  53.2169 272.5607 0001633  85.1214 274.9964 15.08846058 99321,6917.862,95.437,540.857,538.597,0.0
49738.0,STARLINK-3143,PAYLOAD,2023-09-12 11:13:18,15.08850262,0.0001622,53.2165,270.7761,85.3895,274.7283,8.585e-05,1.079e-05,0.0,0 STARLINK-3143,1 49738U 21115Q   23255.46757356  .00001079  00000-0  85850-4 0  9998,2 49738  53.2165 270.7761 0001622  85.3895 274.7283 15.08850262 98270,6917.849,95.437,540.836,538.592,0.0
49738.0,STARLINK-3143,PAYLOAD,2023-09-12 17:34:51,15.08846503,0.0001475,53.2161,269.5846,94.2983,265.8178,-7.6247e-07,-3e-06,0.0,0 STARLINK-3143,1 49738U 21115Q   23255.73253682 -.00000300  00000-0 -76247-6 0  9991,2 49738  53.2161 269.5846 0001475  94.2983 265.8178 15.08846503 98311,6917.861,95.437,540.746,538.705,0.0
